{
  "type": "FeatureCollection",
  "features": [
    {
      "type": "Feature",
      "properties": {
        "norad_id": 66510,
        "name": "STARLINK-35600",
        "group": "last-30-days",
        "lat": -42.70687051045789,
        "lon": 22.371261419139493,
        "alt_km": 417.03912843162107,
        "timestamp": "2025-12-13T13:34:33.863652+00:00",
        "meta_object_name": "STARLINK-35600",
        "meta_object_id": "2025-263AB",
        "meta_epoch": "2025-12-12T17:53:30.772320",
        "meta_mean_motion": 15.50611887,
        "meta_eccentricity": 0.00013691,
        "meta_inclination": 42.9963,
        "meta_ra_of_asc_node": 125.0214,
        "meta_arg_of_pericenter": 302.8543,
        "meta_mean_anomaly": 57.2185,
        "meta_ephemeris_type": 0,
        "meta_classification_type": "U",
        "meta_norad_cat_id": 66510,
        "meta_element_set_no": 999,
        "meta_rev_at_epoch": 556,
        "meta_bstar": 0.0020880843,
        "meta_mean_motion_dot": 0.00124265,
        "meta_mean_motion_ddot": 0,
        "tle_line1": "1 66510U 25263AB  25346.74549505  .00124265  00000+0  20881-2 0  9995",
        "tle_line2": "2 66510  42.9963 125.0214 0001369 302.8543  57.2185 15.50611887  5568"
      },
      "geometry": {
        "type": "Point",
        "coordinates": [
          22.371261419139493,
          -42.70687051045789
        ]
      }
    },
    {
      "type": "Feature",
      "properties": {
        "norad_id": 66511,
        "name": "STARLINK-35444",
        "group": "last-30-days",
        "lat": -42.943510507661124,
        "lon": 27.49586187842878,
        "alt_km": 417.40560708439625,
        "timestamp": "2025-12-13T13:34:33.863661+00:00",
        "meta_object_name": "STARLINK-35444",
        "meta_object_id": "2025-263AC",
        "meta_epoch": "2025-12-12T17:52:31.597824",
        "meta_mean_motion": 15.50601736,
        "meta_eccentricity": 9.972e-05,
        "meta_inclination": 42.9961,
        "meta_ra_of_asc_node": 125.0166,
        "meta_arg_of_pericenter": 316.6699,
        "meta_mean_anomaly": 43.4083,
        "meta_ephemeris_type": 0,
        "meta_classification_type": "U",
        "meta_norad_cat_id": 66511,
        "meta_element_set_no": 999,
        "meta_rev_at_epoch": 556,
        "meta_bstar": 0.0018978233,
        "meta_mean_motion_dot": 0.00112702,
        "meta_mean_motion_ddot": 0,
        "tle_line1": "1 66511U 25263AC  25346.74481016  .00112702  00000+0  18978-2 0  9995",
        "tle_line2": "2 66511  42.9961 125.0166 0000997 316.6699  43.4083 15.50601736  5560"
      },
      "geometry": {
        "type": "Point",
        "coordinates": [
          27.49586187842878,
          -42.943510507661124
        ]
      }
    },
    {
      "type": "Feature",
      "properties": {
        "norad_id": 66512,
        "name": "STARLINK-35366",
        "group": "last-30-days",
        "lat": -42.95058761121578,
        "lon": 32.78605896587146,
        "alt_km": 416.3692299250106,
        "timestamp": "2025-12-13T13:34:33.863671+00:00",
        "meta_object_name": "STARLINK-35366",
        "meta_object_id": "2025-263AD",
        "meta_epoch": "2025-12-12T17:51:31.717440",
        "meta_mean_motion": 15.50629709,
        "meta_eccentricity": 0.00023747,
        "meta_inclination": 43.0001,
        "meta_ra_of_asc_node": 125.0098,
        "meta_arg_of_pericenter": 292.0069,
        "meta_mean_anomaly": 68.0538,
        "meta_ephemeris_type": 0,
        "meta_classification_type": "U",
        "meta_norad_cat_id": 66512,
        "meta_element_set_no": 999,
        "meta_rev_at_epoch": 556,
        "meta_bstar": 0.0015483042,
        "meta_mean_motion_dot": 0.00091731,
        "meta_mean_motion_ddot": 0,
        "tle_line1": "1 66512U 25263AD  25346.74411710  .00091731  00000+0  15483-2 0  9996",
        "tle_line2": "2 66512  43.0001 125.0098 0002374 292.0069  68.0538 15.50629709  5569"
      },
      "geometry": {
        "type": "Point",
        "coordinates": [
          32.78605896587146,
          -42.95058761121578
        ]
      }
    },
    {
      "type": "Feature",
      "properties": {
        "norad_id": 66513,
        "name": "STARLINK-35692",
        "group": "last-30-days",
        "lat": -42.85799008483172,
        "lon": 24.93016887048716,
        "alt_km": 416.7959088721145,
        "timestamp": "2025-12-13T13:34:33.863680+00:00",
        "meta_object_name": "STARLINK-35692",
        "meta_object_id": "2025-263AE",
        "meta_epoch": "2025-12-12T20:58:31.218816",
        "meta_mean_motion": 15.50638121,
        "meta_eccentricity": 0.00017682,
        "meta_inclination": 43.0003,
        "meta_ra_of_asc_node": 124.2658,
        "meta_arg_of_pericenter": 293.0905,
        "meta_mean_anomaly": 66.9769,
        "meta_ephemeris_type": 0,
        "meta_classification_type": "U",
        "meta_norad_cat_id": 66513,
        "meta_element_set_no": 999,
        "meta_rev_at_epoch": 558,
        "meta_bstar": 0.0017244336,
        "meta_mean_motion_dot": 0.00102372,
        "meta_mean_motion_ddot": 0,
        "tle_line1": "1 66513U 25263AE  25346.87397244  .00102372  00000+0  17244-2 0  9997",
        "tle_line2": "2 66513  43.0003 124.2658 0001768 293.0905  66.9769 15.50638121  5584"
      },
      "geometry": {
        "type": "Point",
        "coordinates": [
          24.93016887048716,
          -42.85799008483172
        ]
      }
    },
    {
      "type": "Feature",
      "properties": {
        "norad_id": 66514,
        "name": "SENTINEL-6B",
        "group": "last-30-days",
        "lat": -48.71765116360596,
        "lon": 130.2910164662851,
        "alt_km": 1336.4982155572943,
        "timestamp": "2025-12-13T13:34:33.863689+00:00",
        "meta_object_name": "SENTINEL-6B",
        "meta_object_id": "2025-264A",
        "meta_epoch": "2025-12-12T06:01:21.430272",
        "meta_mean_motion": 12.81479583,
        "meta_eccentricity": 0.00078489,
        "meta_inclination": 66.0385,
        "meta_ra_of_asc_node": 163.4531,
        "meta_arg_of_pericenter": 270.1768,
        "meta_mean_anomaly": 89.8348,
        "meta_ephemeris_type": 0,
        "meta_classification_type": "U",
        "meta_norad_cat_id": 66514,
        "meta_element_set_no": 999,
        "meta_rev_at_epoch": 322,
        "meta_bstar": 0.00019742237,
        "meta_mean_motion_dot": -1.5e-07,
        "meta_mean_motion_ddot": 0,
        "tle_line1": "1 66514U 25264A   25346.25094248 -.00000015  00000+0  19742-3 0  9997",
        "tle_line2": "2 66514  66.0385 163.4531 0007848 270.1768  89.8348 12.81479583  3228"
      },
      "geometry": {
        "type": "Point",
        "coordinates": [
          130.2910164662851,
          -48.71765116360596
        ]
      }
    },
    {
      "type": "Feature",
      "properties": {
        "norad_id": 66516,
        "name": "STARLINK-35924",
        "group": "last-30-days",
        "lat": 2.9037930569461583,
        "lon": 52.4760594080602,
        "alt_km": 443.42829208967214,
        "timestamp": "2025-12-13T13:34:33.863699+00:00",
        "meta_object_name": "STARLINK-35924",
        "meta_object_id": "2025-265A",
        "meta_epoch": "2025-12-12T20:00:01.999872",
        "meta_mean_motion": 15.40675443,
        "meta_eccentricity": 0.000133,
        "meta_inclination": 43.0008,
        "meta_ra_of_asc_node": 53.5767,
        "meta_arg_of_pericenter": 268.5994,
        "meta_mean_anomaly": 349.1404,
        "meta_ephemeris_type": 0,
        "meta_classification_type": "U",
        "meta_norad_cat_id": 66516,
        "meta_element_set_no": 999,
        "meta_rev_at_epoch": 499,
        "meta_bstar": 0.00049100275,
        "meta_mean_motion_dot": 0.00020244,
        "meta_mean_motion_ddot": 0,
        "tle_line1": "1 66516U 25265A   25346.83335648  .00020244  00000+0  49100-3 0  9992",
        "tle_line2": "2 66516  43.0008  53.5767 0001330 268.5994 349.1404 15.40675443  4990"
      },
      "geometry": {
        "type": "Point",
        "coordinates": [
          52.4760594080602,
          2.9037930569461583
        ]
      }
    },
    {
      "type": "Feature",
      "properties": {
        "norad_id": 66517,
        "name": "STARLINK-35937",
        "group": "last-30-days",
        "lat": 41.06161202276703,
        "lon": 118.39372776232618,
        "alt_km": 410.0312843826123,
        "timestamp": "2025-12-13T13:34:33.863709+00:00",
        "meta_object_name": "STARLINK-35937",
        "meta_object_id": "2025-265B",
        "meta_epoch": "2025-12-12T20:00:01.999872",
        "meta_mean_motion": 15.50683012,
        "meta_eccentricity": 0.00014573,
        "meta_inclination": 43.0004,
        "meta_ra_of_asc_node": 53.4695,
        "meta_arg_of_pericenter": 268.3503,
        "meta_mean_anomaly": 33.5272,
        "meta_ephemeris_type": 0,
        "meta_classification_type": "U",
        "meta_norad_cat_id": 66517,
        "meta_element_set_no": 999,
        "meta_rev_at_epoch": 500,
        "meta_bstar": -0.0034779796,
        "meta_mean_motion_dot": -0.00199995,
        "meta_mean_motion_ddot": 0,
        "tle_line1": "1 66517U 25265B   25346.83335648 -.00199995  00000+0 -34780-2 0  9992",
        "tle_line2": "2 66517  43.0004  53.4695 0001457 268.3503  33.5272 15.50683012  5002"
      },
      "geometry": {
        "type": "Point",
        "coordinates": [
          118.39372776232618,
          41.06161202276703
        ]
      }
    }
  ]
}